[
    {
        "Altitude(m)": 706716.7588041254,
        "Argument of Periapsis(deg)": 0.006834072711976239,
        "Eccentricity": 0.0,
        "Inclination(deg)": 45.0,
        "Latitude(deg)": 42.51995979371683,
        "Longitude(deg)": -54.66209195042839,
        "Mean Anomaly(deg)": -287.62557001151146,
        "RAAN(deg)": 339.9935488351251,
        "Satellite Name": "Constellation 1 1500",
        "Satellite Number": 1500,
        "Semi-Major Axis(m)": 7083131.272910544,
        "Time(s)": 114
    },
    {
        "Altitude(m)": 706720.6643832759,
        "Argument of Periapsis(deg)": 0.006894020718221645,
        "Eccentricity": 0.0,
        "Inclination(deg)": 45.0,
        "Latitude(deg)": 42.537579032961055,
        "Longitude(deg)": -54.58751681565369,
        "Mean Anomaly(deg)": -287.56486887126164,
        "RAAN(deg)": 339.9934922459595,
        "Satellite Name": "Constellation 1 1500",
        "Satellite Number": 1500,
        "Semi-Major Axis(m)": 7083131.272910544,
        "Time(s)": 115
    },
    {
        "Altitude(m)": 706724.5587831346,
        "Argument of Periapsis(deg)": 0.006953968724467052,
        "Eccentricity": 0.0,
        "Inclination(deg)": 45.0,
        "Latitude(deg)": 42.555144182177955,
        "Longitude(deg)": -54.51289752774663,
        "Mean Anomaly(deg)": -287.5041677310117,
        "RAAN(deg)": 339.99343565679396,
        "Satellite Name": "Constellation 1 1500",
        "Satellite Number": 1500,
        "Semi-Major Axis(m)": 7083131.272910544,
        "Time(s)": 116
    },
    {
        "Altitude(m)": 706728.4419805832,
        "Argument of Periapsis(deg)": 0.007013916730712457,
        "Eccentricity": 0.0,
        "Inclination(deg)": 45.0,
        "Latitude(deg)": 42.572655178392715,
        "Longitude(deg)": -54.438234170665396,
        "Mean Anomaly(deg)": -287.4434665907618,
        "RAAN(deg)": 339.9933790676284,
        "Satellite Name": "Constellation 1 1500",
        "Satellite Number": 1500,
        "Semi-Major Axis(m)": 7083131.272910544,
        "Time(s)": 117
    },
    {
        "Altitude(m)": 706732.3139525693,
        "Argument of Periapsis(deg)": 0.007073864736957864,
        "Eccentricity": 0.0,
        "Inclination(deg)": 45.0,
        "Latitude(deg)": 42.59011195873423,
        "Longitude(deg)": -54.36352682893225,
        "Mean Anomaly(deg)": -287.3827654505119,
        "RAAN(deg)": 339.99332247846286,
        "Satellite Name": "Constellation 1 1500",
        "Satellite Number": 1500,
        "Semi-Major Axis(m)": 7083131.272910544,
        "Time(s)": 118
    },
    {
        "Altitude(m)": 706736.1746761086,
        "Argument of Periapsis(deg)": 0.0071338127432032696,
        "Eccentricity": 0.0,
        "Inclination(deg)": 45.0,
        "Latitude(deg)": 42.607514460436114,
        "Longitude(deg)": -54.28877575572967,
        "Mean Anomaly(deg)": -287.322064310262,
        "RAAN(deg)": 339.9932658892973,
        "Satellite Name": "Constellation 1 1500",
        "Satellite Number": 1500,
        "Semi-Major Axis(m)": 7083131.272910544,
        "Time(s)": 119
    },
    {
        "Altitude(m)": 706740.0241282872,
        "Argument of Periapsis(deg)": 0.007193760749448674,
        "Eccentricity": 0.0,
        "Inclination(deg)": 45.0,
        "Latitude(deg)": 42.62486262083814,
        "Longitude(deg)": -54.21398070051387,
        "Mean Anomaly(deg)": -287.2613631700121,
        "RAAN(deg)": 339.99320930013164,
        "Satellite Name": "Constellation 1 1500",
        "Satellite Number": 1500,
        "Semi-Major Axis(m)": 7083131.272910544,
        "Time(s)": 120
    },
    {
        "Altitude(m)": 706743.8622862676,
        "Argument of Periapsis(deg)": 0.007253708755694079,
        "Eccentricity": 0.0,
        "Inclination(deg)": 45.0,
        "Latitude(deg)": 42.64215637738612,
        "Longitude(deg)": -54.13914191759533,
        "Mean Anomaly(deg)": -287.20066202976216,
        "RAAN(deg)": 339.9931527109661,
        "Satellite Name": "Constellation 1 1500",
        "Satellite Number": 1500,
        "Semi-Major Axis(m)": 7083131.272910544,
        "Time(s)": 121
    },
    {
        "Altitude(m)": 706747.6891272729,
        "Argument of Periapsis(deg)": 0.0073136567619394854,
        "Eccentricity": 0.0,
        "Inclination(deg)": 45.0,
        "Latitude(deg)": 42.65939566763355,
        "Longitude(deg)": -54.064259493752296,
        "Mean Anomaly(deg)": -287.1399608895123,
        "RAAN(deg)": 339.99309612180053,
        "Satellite Name": "Constellation 1 1500",
        "Satellite Number": 1500,
        "Semi-Major Axis(m)": 7083131.272910544,
        "Time(s)": 122
    },
    {
        "Altitude(m)": 706751.5046285964,
        "Argument of Periapsis(deg)": 0.0073736047681848904,
        "Eccentricity": 0.0,
        "Inclination(deg)": 45.0,
        "Latitude(deg)": 42.67658042924226,
        "Longitude(deg)": -53.98933351632749,
        "Mean Anomaly(deg)": -287.0792597492624,
        "RAAN(deg)": 339.993039532635,
        "Satellite Name": "Constellation 1 1500",
        "Satellite Number": 1500,
        "Semi-Major Axis(m)": 7083131.272910544,
        "Time(s)": 123
    },
    {
        "Altitude(m)": 706755.3087676149,
        "Argument of Periapsis(deg)": 0.007433552774430298,
        "Eccentricity": 0.0,
        "Inclination(deg)": 45.0,
        "Latitude(deg)": 42.69371059998336,
        "Longitude(deg)": -53.914364073228334,
        "Mean Anomaly(deg)": -287.0185586090126,
        "RAAN(deg)": 339.99298294346943,
        "Satellite Name": "Constellation 1 1500",
        "Satellite Number": 1500,
        "Semi-Major Axis(m)": 7083131.272910544,
        "Time(s)": 124
    },
    {
        "Altitude(m)": 706759.1015217563,
        "Argument of Periapsis(deg)": 0.007493500780675703,
        "Eccentricity": 0.0,
        "Inclination(deg)": 45.0,
        "Latitude(deg)": 42.71078611773811,
        "Longitude(deg)": -53.83935125292722,
        "Mean Anomaly(deg)": -286.9578574687626,
        "RAAN(deg)": 339.99292635430385,
        "Satellite Name": "Constellation 1 1500",
        "Satellite Number": 1500,
        "Semi-Major Axis(m)": 7083131.272910544,
        "Time(s)": 125
    },
    {
        "Altitude(m)": 706762.8828685277,
        "Argument of Periapsis(deg)": 0.007553448786921108,
        "Eccentricity": 0.0,
        "Inclination(deg)": 45.0,
        "Latitude(deg)": 42.72780692049872,
        "Longitude(deg)": -53.76429531255819,
        "Mean Anomaly(deg)": -286.89715632851266,
        "RAAN(deg)": 339.99286976513827,
        "Satellite Name": "Constellation 1 1500",
        "Satellite Number": 1500,
        "Semi-Major Axis(m)": 7083131.272910544,
        "Time(s)": 126
    },
    {
        "Altitude(m)": 706766.6527855176,
        "Argument of Periapsis(deg)": 0.007613396793166514,
        "Eccentricity": 0.0,
        "Inclination(deg)": 45.0,
        "Latitude(deg)": 42.744772946369764,
        "Longitude(deg)": -53.6891960055303,
        "Mean Anomaly(deg)": -286.83645518826285,
        "RAAN(deg)": 339.9928131759727,
        "Satellite Name": "Constellation 1 1500",
        "Satellite Number": 1500,
        "Semi-Major Axis(m)": 7083131.272910544,
        "Time(s)": 127
    },
    {
        "Altitude(m)": 706770.4112503642,
        "Argument of Periapsis(deg)": 0.007673344799411918,
        "Eccentricity": 0.0,
        "Inclination(deg)": 45.0,
        "Latitude(deg)": 42.761684133568366,
        "Longitude(deg)": -53.61405359010768,
        "Mean Anomaly(deg)": -286.77575404801286,
        "RAAN(deg)": 339.99275658680716,
        "Satellite Name": "Constellation 1 1500",
        "Satellite Number": 1500,
        "Semi-Major Axis(m)": 7083131.272910544,
        "Time(s)": 128
    },
    {
        "Altitude(m)": 706774.1582407955,
        "Argument of Periapsis(deg)": 0.007733292805657325,
        "Eccentricity": 0.0,
        "Inclination(deg)": 45.0,
        "Latitude(deg)": 42.778540420425415,
        "Longitude(deg)": -53.53886815702376,
        "Mean Anomaly(deg)": -286.71505290776304,
        "RAAN(deg)": 339.9926999976415,
        "Satellite Name": "Constellation 1 1500",
        "Satellite Number": 1500,
        "Semi-Major Axis(m)": 7083131.272910544,
        "Time(s)": 129
    },
    {
        "Altitude(m)": 706777.8937345963,
        "Argument of Periapsis(deg)": 0.00779324081190273,
        "Eccentricity": 0.0,
        "Inclination(deg)": 45.0,
        "Latitude(deg)": 42.79534174538664,
        "Longitude(deg)": -53.46363979757678,
        "Mean Anomaly(deg)": -286.6543517675131,
        "RAAN(deg)": 339.992643408476,
        "Satellite Name": "Constellation 1 1500",
        "Satellite Number": 1500,
        "Semi-Major Axis(m)": 7083131.272910544,
        "Time(s)": 130
    },
    {
        "Altitude(m)": 706781.6177096241,
        "Argument of Periapsis(deg)": 0.007853188818148135,
        "Eccentricity": 0.0,
        "Inclination(deg)": 45.0,
        "Latitude(deg)": 42.812088047013226,
        "Longitude(deg)": -53.38836860363101,
        "Mean Anomaly(deg)": -286.59365062726323,
        "RAAN(deg)": 339.9925868193104,
        "Satellite Name": "Constellation 1 1500",
        "Satellite Number": 1500,
        "Semi-Major Axis(m)": 7083131.272910544,
        "Time(s)": 131
    },
    {
        "Altitude(m)": 706785.3301438218,
        "Argument of Periapsis(deg)": 0.007913136824393542,
        "Eccentricity": 0.0,
        "Inclination(deg)": 45.0,
        "Latitude(deg)": 42.82877926398297,
        "Longitude(deg)": -53.31305466761592,
        "Mean Anomaly(deg)": -286.5329494870133,
        "RAAN(deg)": 339.99253023014484,
        "Satellite Name": "Constellation 1 1500",
        "Satellite Number": 1500,
        "Semi-Major Axis(m)": 7083131.272910544,
        "Time(s)": 132
    }
]